GLOBALSTAR M069         
1 31573U 07020C   26186.33697657 -.00000071  00000+0  19853-3 0  9994
2 31573  51.9996 200.7551 0001910 188.2648 273.6385 12.23471988881026
GLOBALSTAR M072         
1 31574U 07020D   26186.02150507 -.00000070  00000+0  19891-3 0  9990
2 31574  51.9942  52.7663 0001597  14.4867 133.2616 11.91658598877101
GLOBALSTAR M066         
1 32265U 07048C   26185.53584877 -.00000097  00000+0 -18207-4 0  9995
2 32265  51.9612   8.1104 0005713  79.8467 314.3397 12.30387894862365
GLOBALSTAR M079         
1 37188U 10054A   26186.05081149 -.00000089  00000+0  84039-4 0  9993
2 37188  52.0046  54.2911 0001050  60.4707  86.8626 12.62266452724801
GLOBALSTAR M074         
1 37189U 10054B   26186.08098524 -.00000090  00000+0  78084-4 0  9997
2 37189  52.0026  53.4614 0000823  77.2991  87.3477 12.62261935725418
GLOBALSTAR M077         
1 37191U 10054D   26186.29753277 -.00000066  00000+0  22086-3 0  9999
2 37191  51.9938 133.3278 0002430 206.0696 321.6274 11.67547922723251
GLOBALSTAR M075         
1 37192U 10054E   26186.11484753 -.00000070  00000+0  19078-3 0  9993
2 37192  51.9943  95.6069 0000575  49.0300  89.7650 12.62267688724201
GLOBALSTAR M073         
1 37193U 10054F   26186.56881330 -.00000102  00000+0  76312-5 0  9997
2 37193  52.0074   8.3393 0001112  82.5037 318.5747 12.62266808726257
GLOBALSTAR M083         
1 37739U 11033A   26186.42323808 -.00000085  00000+0  10659-3 0  9997
2 37739  51.9877 316.9866 0000915  94.5743 306.0008 12.62263827695257
GLOBALSTAR M088         
1 37740U 11033B   26186.49983985 -.00000097  00000+0  39394-4 0  9995
2 37740  52.0189 223.2265 0000269 153.0301 354.3814 12.62269272690800
GLOBALSTAR M091         
1 37741U 11033C   26186.43742134 -.00000109  00000+0 -26612-4 0  9993
2 37741  51.9966 186.3534 0000167 357.6063 166.7695 12.62264138691588
GLOBALSTAR M085         
1 37742U 11033D   26186.26210663 -.00000087  00000+0  94870-4 0  9997
2 37742  52.0110 138.1940 0000544  18.2324 129.1419 12.62264240692073
GLOBALSTAR M081         
1 37743U 11033E   26186.28859213 -.00000091  00000+0  72301-4 0  9990
2 37743  51.9941 140.5290 0000445  42.0353 105.5250 12.62265328692222
GLOBALSTAR M089         
1 37744U 11033F   26186.16991723 -.00000077  00000+0  14810-3 0  9995
2 37744  51.9929  95.0463 0000594  80.4983  68.5401 12.62267539693059
GLOBALSTAR M084         
1 38040U 11080A   26185.67833848 -.00000087  00000+0  93909-4 0  9993
2 38040  52.0027 324.0335 0001037 114.2678 259.7855 12.62267759670970
GLOBALSTAR M080         
1 38041U 11080B   26186.36327359 -.00000086  00000+0  98009-4 0  9991
2 38041  52.0077 323.6728 0000421  83.2784 294.7958 12.62265491671184
GLOBALSTAR M092         
1 38043U 11080D   26186.51341097 -.00000082  00000+0  12316-3 0  9997
2 38043  52.0098   9.1165 0000844  89.7988 299.8460 12.62267523670367
GLOBALSTAR M090         
1 38044U 11080E   26185.21740354 -.00000074  00000+0  16688-3 0  9990
2 38044  52.0126 276.6260 0000536 105.7516 271.4525 12.62252830671860
GLOBALSTAR M086         
1 38045U 11080F   26186.27200464 -.00000065  00000+0  21780-3 0  9990
2 38045  51.9895 273.3158 0001643  97.3253 297.1613 12.62287725671949
GLOBALSTAR M097         
1 39072U 13005A   26186.29607343 -.00000108  00000+0 -22122-4 0  9990
2 39072  52.0015 188.2110 0000206  41.0870 319.0013 12.62271328619192
GLOBALSTAR M093         
1 39073U 13005B   26186.26926405 -.00000108  00000+0 -23626-4 0  9991
2 39073  52.0075 181.6456 0000399  33.0659 327.0233 12.62266172619147
GLOBALSTAR M094         
1 39074U 13005C   26186.18993143 -.00000080  00000+0  13342-3 0  9997
2 39074  51.9958  95.9861 0000837  44.0249 316.0685 12.62268565620742
GLOBALSTAR M096         
1 39075U 13005D   26186.20345758 -.00000100  00000+0  22114-4 0  9995
2 39075  52.0049 144.7595 0000500  23.0006 337.0883 12.62265589619663
GLOBALSTAR M078         
1 39076U 13005E   26186.25573513 -.00000097  00000+0  36760-4 0  9990
2 39076  51.9850 228.5879 0000613 306.7097  53.3713 12.62260011618297
GLOBALSTAR M095         
1 39077U 13005F   26186.28243724 -.00000103  00000+0  54431-5 0  9996
2 39077  52.0058 226.1360 0000179   1.2992 358.7875 12.62263910618154
GLOBALSTAR M087         
1 52888U 22064A   26186.53314435 -.00000107  00000+0 -15514-4 0  9995
2 52888  52.0011   6.5995 0000945  71.5076 288.5894 12.62269281193455
